{
  "norad_id": 55632,
  "name": "STARLINK-5546",
  "history": [
    {
      "epoch": "2026-03-28T22:00:01.999584Z",
      "apogee_km": 574.2893247880929,
      "perigee_km": 569.8721833966565,
      "latitude_deg": 21.87520815359756,
      "longitude_deg": 171.29379389556556,
      "height_km": 575.1877544068129,
      "semi_major_axis_km": 6950.217754092374,
      "eccentricity": 0.00031777,
      "inclination_deg": 70.0018,
      "raan_deg": 155.9882,
      "arg_perigee_deg": 271.9023,
      "mean_anomaly_deg": 244.7982,
      "mean_motion_rev_day": 14.9832196
    },
    {
      "epoch": "2026-03-29T00:00:01.999296Z",
      "apogee_km": 574.3934675591499,
      "perigee_km": 569.9452714826557,
      "latitude_deg": -59.37519669278019,
      "longitude_deg": -172.95030447514867,
      "height_km": 592.467024809197,
      "semi_major_axis_km": 6950.306369520902,
      "eccentricity": 0.00032,
      "inclination_deg": 70.0018,
      "raan_deg": 155.7779,
      "arg_perigee_deg": 270.57,
      "mean_anomaly_deg": 335.5068,
      "mean_motion_rev_day": 14.98293305
    }
  ]
}